{
  "type": "FeatureCollection",
  "features": [
    {
      "type": "Feature",
      "properties": {
        "name": "PARCELA_DEMO"
      },
      "geometry": {
        "type": "Polygon",
        "coordinates": [
          [
            [
              -99.63,
              19.289864864864864
            ],
            [
              -99.62981981981982,
              19.289864864864864
            ],
            [
              -99.62981981981982,
              19.29
            ],
            [
              -99.63,
              19.29
            ],
            [
              -99.63,
              19.289864864864864
            ]
          ]
        ]
      }
    }
  ]
}