{"type":"FeatureCollection","features":[{"type":"Feature","geometry":{"type":"Polygon","coordinates":[[[-98.717088,19.876981,0],[-98.716907,19.877191,0],[-98.717343,19.877595,0],[-98.71739,19.877613,0],[-98.717473,19.877598,0],[-98.717599,19.877476,0],[-98.717601,19.877444,0],[-98.717333,19.877216,0],[-98.717252,19.877113,0],[-98.717088,19.876981,0]]]},"properties":{"name":"SAZ_JOSE_SIEMBRA","styleUrl":"#__managed_style_00AA2264D841AD5EF706","fill-opacity":0.25098039215686274,"fill":"#bdbdbd","stroke-opacity":1,"stroke":"#ab47bc","stroke-width":4,"icon-offset":[64,128],"icon-offset-units":["pixels","insetPixels"],"icon":"https://earth.google.com/earth/document/icon?color=1976d2&id=2000&scale=4"},"id":"05EEAFB68F41AD5ED841"},{"type":"Feature","geometry":{"type":"Polygon","coordinates":[[[-98.716842,19.876732,0],[-98.716647,19.877006,0],[-98.716901,19.877198,0],[-98.717357,19.87761,0],[-98.717387,19.877621,0],[-98.717472,19.877599,0],[-98.717532,19.87755,0],[-98.717597,19.877473,0],[-98.717613,19.87744,0],[-98.717371,19.877244,0],[-98.717288,19.877138,0],[-98.717131,19.877005,0],[-98.716842,19.876732,0]]]},"properties":{"name":"SAZ_JOSE","styleUrl":"#__managed_style_0C733A97AD41AD597A8B","fill-opacity":0.25098039215686274,"fill":"#ffffff","stroke-opacity":1,"stroke":"#fbc02d","stroke-width":4,"icon-offset":[64,128],"icon-offset-units":["pixels","insetPixels"],"icon":"https://earth.google.com/earth/document/icon?color=1976d2&id=2000&scale=4"},"id":"0972FA951241AD597A64"}]}